{{Infobox Planet  
| name = 657 Gunlöd
| image = 
| caption = 
| discovery=yes | physical_characteristics = yes | bgcolour=#FFFFC0
| discovery_ref = 
| discoverer = [[奥古斯特·科普夫|奥古斯特·科普夫]]
| discovery_site = [[海德堡|海德堡]]（[[天文台编号列表|024]]）
| discovered =  1908年1月23日
| mp_name = 657
| alt_names = 1908 BV
| named_after = [[格萝德|格萝德]]
| mp_category=[[小行星带|主带小行星]]
| orbit_ref = <ref>[http://ssd.jpl.nasa.gov/sbdb.cgi?sstr=657 657 Gunlod (1908 BV)]</ref>
| epoch = 2011年8月27日
| semimajor= 2.609921632917813AU
| perihelion=2.311278775686745AU
| aphelion= 2.908564490148882[[天文单位|AU]]
| eccentricity =0.1144259863838114			
| period =1540.067044444143[[日|地球日]]<br>4.42[[年|地球年]] 
| inclination=10.22055733392233[[角度|°]]
| asc_node=297.7415316139883°
| arg_peri=244.6264677585429°
| mean_anomaly=147.2575493746715°
| avg_speed=
 | dimensions=42.52千米
 | mass=
 | density=
 | surface_grav=
 | escape_velocity=
 | rotation=15.6652小时
 | spectral_type=
 | magnitude=
 | abs_magnitude=10.93
 | albedo=0.0415
 | single_temperature=
}}
'''小行星657'''（'''657 Gunlöd'''），是由[[德国|德国]][[天文学家|天文学家]][[奥古斯特·科普夫|奥古斯特·科普夫]]于1908年1月23日在德国[[海德堡|海德堡]]发现的[[小行星带|主带]][[小行星|小行星]]。虽然小行星657的位置靠近[[司法星族|司法星族]]小行星，但它并非这个小行星族的成员。

小行星657以[[北欧神话|北欧神话]]中的女巨人[[格萝德|格萝德]]命名。

== 参考资料 ==
{{Reflist}}

{{Minor Planet Number|(656)[[小行星656|小行星656]]|(658)[[小行星658|小行星658]]}}

[[Category:小行星带天体|Category:小行星带天体]]
[[Category:1908年发现的小行星|Category:1908年发现的小行星]]